CCSDS_OMM_VERS = 2.0
CREATION_DATE  = 
ORIGINATOR     = 

OBJECT_NAME    = UNKNOWN
OBJECT_ID      = 
CENTER_NAME    = EARTH
REF_FRAME      = TEME
TIME_SYSTEM    = UTC
MEAN_ELEMENT_THEORY = SGP/SGP4

EPOCH          = 2026-02-15T08:01:38.826624
MEAN_MOTION    = 12.92673840
ECCENTRICITY   = .00280104
INCLINATION    = 90.2482
RA_OF_ASC_NODE = 4.0471
ARG_OF_PERICENTER = 244.3095
MEAN_ANOMALY   = 115.5130

EPHEMERIS_TYPE = 0
CLASSIFICATION_TYPE = U
NORAD_CAT_ID   = 270321
ELEMENT_SET_NO = 999
REV_AT_EPOCH   = 25030
BSTAR          = .83531497E-3
MEAN_MOTION_DOT = .234E-5
MEAN_MOTION_DDOT = 0

CCSDS_OMM_VERS = 2.0
CREATION_DATE  = 
ORIGINATOR     = 

OBJECT_NAME    = UNKNOWN
OBJECT_ID      = 
CENTER_NAME    = EARTH
REF_FRAME      = TEME
TIME_SYSTEM    = UTC
MEAN_ELEMENT_THEORY = SGP/SGP4

EPOCH          = 2026-02-23T19:09:07.272576
MEAN_MOTION    = 12.93148313
ECCENTRICITY   = .00286833
INCLINATION    = 90.2465
RA_OF_ASC_NODE = 3.9688
ARG_OF_PERICENTER = 215.0616
MEAN_ANOMALY   = 144.8614

EPHEMERIS_TYPE = 0
CLASSIFICATION_TYPE = U
NORAD_CAT_ID   = 270322
ELEMENT_SET_NO = 999
REV_AT_EPOCH   = 22745
BSTAR          = .435586E-3
MEAN_MOTION_DOT = .126E-5
MEAN_MOTION_DDOT = 0

CCSDS_OMM_VERS = 2.0
CREATION_DATE  = 
ORIGINATOR     = 

OBJECT_NAME    = UNKNOWN
OBJECT_ID      = 
CENTER_NAME    = EARTH
REF_FRAME      = TEME
TIME_SYSTEM    = UTC
MEAN_ELEMENT_THEORY = SGP/SGP4

EPOCH          = 2026-02-05T07:28:33.694176
MEAN_MOTION    = 14.45056970
ECCENTRICITY   = .00385469
INCLINATION    = 81.2809
RA_OF_ASC_NODE = 51.5046
ARG_OF_PERICENTER = 275.3430
MEAN_ANOMALY   = 84.3363

EPHEMERIS_TYPE = 0
CLASSIFICATION_TYPE = U
NORAD_CAT_ID   = 270323
ELEMENT_SET_NO = 999
REV_AT_EPOCH   = 28524
BSTAR          = .4400781E-2
MEAN_MOTION_DOT = .15548E-3
MEAN_MOTION_DDOT = 0

CCSDS_OMM_VERS = 2.0
CREATION_DATE  = 
ORIGINATOR     = 

OBJECT_NAME    = UNKNOWN
OBJECT_ID      = 
CENTER_NAME    = EARTH
REF_FRAME      = TEME
TIME_SYSTEM    = UTC
MEAN_ELEMENT_THEORY = SGP/SGP4

EPOCH          = 2026-02-02T00:38:10.086432
MEAN_MOTION    = 12.32534329
ECCENTRICITY   = .06716415
INCLINATION    = 66.0280
RA_OF_ASC_NODE = 153.8895
ARG_OF_PERICENTER = 256.8749
MEAN_ANOMALY   = 95.6502

EPHEMERIS_TYPE = 0
CLASSIFICATION_TYPE = U
NORAD_CAT_ID   = 270324
ELEMENT_SET_NO = 999
REV_AT_EPOCH   = 25450
BSTAR          = .73264542E-3
MEAN_MOTION_DOT = .135E-5
MEAN_MOTION_DDOT = 0

CCSDS_OMM_VERS = 2.0
CREATION_DATE  = 
ORIGINATOR     = 

OBJECT_NAME    = UNKNOWN
OBJECT_ID      = 
CENTER_NAME    = EARTH
REF_FRAME      = TEME
TIME_SYSTEM    = UTC
MEAN_ELEMENT_THEORY = SGP/SGP4

EPOCH          = 2026-02-02T03:09:39.426912
MEAN_MOTION    = 12.96978225
ECCENTRICITY   = .00349365
INCLINATION    = 90.2377
RA_OF_ASC_NODE = 353.8801
ARG_OF_PERICENTER = 52.1776
MEAN_ANOMALY   = 308.2498

EPHEMERIS_TYPE = 0
CLASSIFICATION_TYPE = U
NORAD_CAT_ID   = 270325
ELEMENT_SET_NO = 999
REV_AT_EPOCH   = 24787
BSTAR          = .23252877E-3
MEAN_MOTION_DOT = .75E-6
MEAN_MOTION_DDOT = 0

CCSDS_OMM_VERS = 2.0
CREATION_DATE  = 
ORIGINATOR     = 

OBJECT_NAME    = UNKNOWN
OBJECT_ID      = 
CENTER_NAME    = EARTH
REF_FRAME      = TEME
TIME_SYSTEM    = UTC
MEAN_ELEMENT_THEORY = SGP/SGP4

EPOCH          = 2026-02-24T02:43:41.786976
MEAN_MOTION    = 13.01593556
ECCENTRICITY   = .00330209
INCLINATION    = 90.2414
RA_OF_ASC_NODE = 1.4667
ARG_OF_PERICENTER = 307.5019
MEAN_ANOMALY   = 52.3103

EPHEMERIS_TYPE = 0
CLASSIFICATION_TYPE = U
NORAD_CAT_ID   = 270326
ELEMENT_SET_NO = 999
REV_AT_EPOCH   = 27408
BSTAR          = .13838553E-3
MEAN_MOTION_DOT = .5E-6
MEAN_MOTION_DDOT = 0

CCSDS_OMM_VERS = 2.0
CREATION_DATE  = 
ORIGINATOR     = 

OBJECT_NAME    = UNKNOWN
OBJECT_ID      = 
CENTER_NAME    = EARTH
REF_FRAME      = TEME
TIME_SYSTEM    = UTC
MEAN_ELEMENT_THEORY = SGP/SGP4

EPOCH          = 2026-02-04T06:22:45.609888
MEAN_MOTION    = 12.95839082
ECCENTRICITY   = .00308383
INCLINATION    = 90.2870
RA_OF_ASC_NODE = 30.7845
ARG_OF_PERICENTER = 105.8359
MEAN_ANOMALY   = 254.6164

EPHEMERIS_TYPE = 0
CLASSIFICATION_TYPE = U
NORAD_CAT_ID   = 270327
ELEMENT_SET_NO = 999
REV_AT_EPOCH   = 24902
BSTAR          = .10152835E-2
MEAN_MOTION_DOT = .296E-5
MEAN_MOTION_DDOT = 0

CCSDS_OMM_VERS = 2.0
CREATION_DATE  = 
ORIGINATOR     = 

OBJECT_NAME    = UNKNOWN
OBJECT_ID      = 
CENTER_NAME    = EARTH
REF_FRAME      = TEME
TIME_SYSTEM    = UTC
MEAN_ELEMENT_THEORY = SGP/SGP4

EPOCH          = 2026-02-25T12:00:12.872736
MEAN_MOTION    = 14.37098616
ECCENTRICITY   = .00022846
INCLINATION    = 86.4002
RA_OF_ASC_NODE = 335.7022
ARG_OF_PERICENTER = 93.5851
MEAN_ANOMALY   = 266.5608

EPHEMERIS_TYPE = 0
CLASSIFICATION_TYPE = U
NORAD_CAT_ID   = 270329
ELEMENT_SET_NO = 999
REV_AT_EPOCH   = 26568
BSTAR          = .18251039E-3
MEAN_MOTION_DOT = .561E-5
MEAN_MOTION_DDOT = 0

CCSDS_OMM_VERS = 2.0
CREATION_DATE  = 
ORIGINATOR     = 

OBJECT_NAME    = UNKNOWN
OBJECT_ID      = 
CENTER_NAME    = EARTH
REF_FRAME      = TEME
TIME_SYSTEM    = UTC
MEAN_ELEMENT_THEORY = SGP/SGP4

EPOCH          = 2026-02-18T22:43:34.350240
MEAN_MOTION    = 13.42177198
ECCENTRICITY   = .00432977
INCLINATION    = 100.3071
RA_OF_ASC_NODE = 229.9757
ARG_OF_PERICENTER = 154.0043
MEAN_ANOMALY   = 206.3272

EPHEMERIS_TYPE = 0
CLASSIFICATION_TYPE = U
NORAD_CAT_ID   = 270330
ELEMENT_SET_NO = 999
REV_AT_EPOCH   = 25662
BSTAR          = .25350185E-2
MEAN_MOTION_DOT = .1388E-4
MEAN_MOTION_DDOT = 0

CCSDS_OMM_VERS = 2.0
CREATION_DATE  = 
ORIGINATOR     = 

OBJECT_NAME    = UNKNOWN
OBJECT_ID      = 
CENTER_NAME    = EARTH
REF_FRAME      = TEME
TIME_SYSTEM    = UTC
MEAN_ELEMENT_THEORY = SGP/SGP4

EPOCH          = 2026-02-19T16:02:05.129088
MEAN_MOTION    = 14.54927259
ECCENTRICITY   = .0103582
INCLINATION    = 86.4389
RA_OF_ASC_NODE = 194.0285
ARG_OF_PERICENTER = 209.0721
MEAN_ANOMALY   = 150.4696

EPHEMERIS_TYPE = 0
CLASSIFICATION_TYPE = U
NORAD_CAT_ID   = 270332
ELEMENT_SET_NO = 999
REV_AT_EPOCH   = 1542
BSTAR          = .610527E-2
MEAN_MOTION_DOT = .28307E-3
MEAN_MOTION_DDOT = 0

CCSDS_OMM_VERS = 2.0
CREATION_DATE  = 
ORIGINATOR     = 

OBJECT_NAME    = UNKNOWN
OBJECT_ID      = 
CENTER_NAME    = EARTH
REF_FRAME      = TEME
TIME_SYSTEM    = UTC
MEAN_ELEMENT_THEORY = SGP/SGP4

EPOCH          = 2026-02-05T15:16:38.197344
MEAN_MOTION    = 14.29610706
ECCENTRICITY   = .02081235
INCLINATION    = 97.7192
RA_OF_ASC_NODE = 168.4663
ARG_OF_PERICENTER = 112.5468
MEAN_ANOMALY   = 249.7888

EPHEMERIS_TYPE = 0
CLASSIFICATION_TYPE = U
NORAD_CAT_ID   = 270333
ELEMENT_SET_NO = 999
REV_AT_EPOCH   = 5545
BSTAR          = .37324781E-2
MEAN_MOTION_DOT = .12062E-3
MEAN_MOTION_DDOT = 0

CCSDS_OMM_VERS = 2.0
CREATION_DATE  = 
ORIGINATOR     = 

OBJECT_NAME    = UNKNOWN
OBJECT_ID      = 
CENTER_NAME    = EARTH
REF_FRAME      = TEME
TIME_SYSTEM    = UTC
MEAN_ELEMENT_THEORY = SGP/SGP4

EPOCH          = 2026-02-04T09:28:13.181664
MEAN_MOTION    = 14.16300760
ECCENTRICITY   = .0184465
INCLINATION    = 86.4519
RA_OF_ASC_NODE = 276.4271
ARG_OF_PERICENTER = 15.6097
MEAN_ANOMALY   = 345.0670

EPHEMERIS_TYPE = 0
CLASSIFICATION_TYPE = U
NORAD_CAT_ID   = 270334
ELEMENT_SET_NO = 999
REV_AT_EPOCH   = 28924
BSTAR          = .56668936E-2
MEAN_MOTION_DOT = .13296E-3
MEAN_MOTION_DDOT = 0

CCSDS_OMM_VERS = 2.0
CREATION_DATE  = 
ORIGINATOR     = 

OBJECT_NAME    = UNKNOWN
OBJECT_ID      = 
CENTER_NAME    = EARTH
REF_FRAME      = TEME
TIME_SYSTEM    = UTC
MEAN_ELEMENT_THEORY = SGP/SGP4

EPOCH          = 2026-02-21T12:57:55.986912
MEAN_MOTION    = 14.14656215
ECCENTRICITY   = .0076654
INCLINATION    = 66.6606
RA_OF_ASC_NODE = 22.2114
ARG_OF_PERICENTER = 14.5408
MEAN_ANOMALY   = 345.7862

EPHEMERIS_TYPE = 0
CLASSIFICATION_TYPE = U
NORAD_CAT_ID   = 270335
ELEMENT_SET_NO = 999
REV_AT_EPOCH   = 24718
BSTAR          = .24386005E-3
MEAN_MOTION_DOT = .4E-5
MEAN_MOTION_DDOT = 0

CCSDS_OMM_VERS = 2.0
CREATION_DATE  = 
ORIGINATOR     = 

OBJECT_NAME    = UNKNOWN
OBJECT_ID      = 
CENTER_NAME    = EARTH
REF_FRAME      = TEME
TIME_SYSTEM    = UTC
MEAN_ELEMENT_THEORY = SGP/SGP4

EPOCH          = 2026-02-05T00:11:05.388864
MEAN_MOTION    = 14.26106398
ECCENTRICITY   = .00125879
INCLINATION    = 81.2872
RA_OF_ASC_NODE = 133.8107
ARG_OF_PERICENTER = 170.6134
MEAN_ANOMALY   = 189.5284

EPHEMERIS_TYPE = 0
CLASSIFICATION_TYPE = U
NORAD_CAT_ID   = 270336
ELEMENT_SET_NO = 999
REV_AT_EPOCH   = 24318
BSTAR          = .2301621E-2
MEAN_MOTION_DOT = .552E-4
MEAN_MOTION_DDOT = 0

CCSDS_OMM_VERS = 2.0
CREATION_DATE  = 
ORIGINATOR     = 

OBJECT_NAME    = UNKNOWN
OBJECT_ID      = 
CENTER_NAME    = EARTH
REF_FRAME      = TEME
TIME_SYSTEM    = UTC
MEAN_ELEMENT_THEORY = SGP/SGP4

EPOCH          = 2026-02-15T21:02:32.487360
MEAN_MOTION    = 13.83860376
ECCENTRICITY   = .01455267
INCLINATION    = 98.8087
RA_OF_ASC_NODE = 285.3012
ARG_OF_PERICENTER = 309.6389
MEAN_ANOMALY   = 49.1999

EPHEMERIS_TYPE = 0
CLASSIFICATION_TYPE = U
NORAD_CAT_ID   = 270340
ELEMENT_SET_NO = 999
REV_AT_EPOCH   = 23675
BSTAR          = .33011593E-3
MEAN_MOTION_DOT = .356E-5
MEAN_MOTION_DDOT = 0

CCSDS_OMM_VERS = 2.0
CREATION_DATE  = 
ORIGINATOR     = 

OBJECT_NAME    = UNKNOWN
OBJECT_ID      = 
CENTER_NAME    = EARTH
REF_FRAME      = TEME
TIME_SYSTEM    = UTC
MEAN_ELEMENT_THEORY = SGP/SGP4

EPOCH          = 2026-02-25T16:26:18.111840
MEAN_MOTION    = 14.21656025
ECCENTRICITY   = .01014385
INCLINATION    = 98.6824
RA_OF_ASC_NODE = 326.7497
ARG_OF_PERICENTER = 63.8716
MEAN_ANOMALY   = 297.2855

EPHEMERIS_TYPE = 0
CLASSIFICATION_TYPE = U
NORAD_CAT_ID   = 270342
ELEMENT_SET_NO = 999
REV_AT_EPOCH   = 23323
BSTAR          = .1923859E-2
MEAN_MOTION_DOT = .4409E-4
MEAN_MOTION_DDOT = 0

